SARSAT 7 (NOAA 15)      
1 25338U 98030A   19118.96388989  .00000030  00000-0  31412-4 0  9999
2 25338  98.7509 140.3110 0011012  36.2294 323.9630 14.25904069 89768
METEOSAT-8 (MSG-1)      
1 27509U 02040B   19119.49997125  .00000136  00000-0  00000+0 0  9995
2 27509   6.0090  55.7700 0002779   2.8432  20.0730  1.00265322 61121
GPS BIIR-08             
1 27663U 03005A   19118.28938355 -.00000035  00000-0  00000+0 0  9993
2 27663  56.3528 318.3187 0106957  31.5764 151.9140  2.00576957119014
GPS BIIR-11             
1 28190U 04009A   19118.23034213 -.00000103  00000-0  00000+0 0  9995
2 28190  56.2592  19.1030 0093336  79.1532 215.9796  2.00568976110695
GPS BIIR-12             
1 28361U 04023A   19118.35304733 -.00000017  00000-0  00000+0 0  9995
2 28361  54.0477 192.3036 0133133 230.6599  66.2378  2.00572262108772
GPS BIIR-13             
1 28474U 04045A   19118.77186378 -.00000037  00000-0  00000-0 0  9996
2 28474  54.6858  69.7919 0191520 260.0674 341.5296  2.00560927106151
SARSAT 10 (NOAA 18)     
1 28654U 05018A   19118.91515438  .00000084  00000-0  70532-4 0  9998
2 28654  99.1016 165.1091 0013470 323.8090  36.2169 14.12419137718259
GPS BIIR-14M            
1 28874U 05038A   19118.59006735 -.00000101  00000-0  00000-0 0  9993
2 28874  56.3846  16.4355 0130877 262.1037 313.9696  2.00557321 99554
METEOSAT-9 (MSG-2)      
1 28912U 05049B   19119.27708764  .00000015  00000-0  00000+0 0  9997
2 28912   3.5637  71.3165 0001906 334.6972 274.3517  1.00265212 48944
GOES 13                 
1 29155U 06018A   19118.89139265 -.00000292  00000-0  00000-0 0  9994
2 29155   0.3162 283.8468 0012206 137.0102  56.3877  1.00283487 17243
SARSAT 11 (METOP-A)     
1 29499U 06044A   19118.94703882 -.00000006  00000-0  16690-4 0  9991
2 29499  98.5796 173.5655 0001591  62.2640  65.5955 14.21547537649673
GPS BIIR-16M            
1 29601U 06052A   19118.84477150 -.00000032  00000-0  00000-0 0  9993
2 29601  56.3322 317.2134 0074392  60.5051 300.2595  2.00566101 91133
GPS BIIR-17M            
1 32260U 07047A   19118.15859163 -.00000014  00000-0  00000+0 0  9994
2 32260  53.1709 188.0461 0111156  43.4082 317.5212  2.00562975 84542
GPS BIIR-18M            
1 32384U 07062A   19118.71965024 -.00000100  00000-0  00000-0 0  9991
2 32384  56.4677  17.0661 0007545  94.0884  87.9331  2.00553776 83278
SARSAT 12 (NOAA 19)     
1 33591U 09005A   19118.96565309  .00000078  00000-0  67844-4 0  9996
2 33591  99.1781 108.8678 0014332 156.9299 203.2518 14.12347050526483
GOES 14                 
1 35491U 09033A   19118.89656466 -.00000101  00000-0  00000-0 0  9990
2 35491   0.1730 103.4564 0006737 127.4776 204.0096  1.00272177 35988
GOES 15                 
1 36411U 10008A   19118.72132626  .00000046  00000-0  00000-0 0  9993
2 36411   0.1048  98.7891 0001492 334.7284 274.5446  1.00264317 33539
GLONASS-K 1             
1 37372U 11009A   19119.02991904 -.00000073  00000-0  00000+0 0  9998
2 37372  65.7189  41.6850 0008389 241.3035   4.8440  2.13107413 63551
GPS BIIF-2              
1 37753U 11036A   19118.76326821 -.00000026  00000-0  00000+0 0  9999
2 37753  55.8833  73.6963 0085795  38.5804 320.2951  2.00566113 56990
GSAT0101 (GALILEO-PFM)  
1 37846U 11060A   19119.23759912 -.00000066  00000-0  00000+0 0  9997
2 37846  56.3457  52.7391 0004945 340.3374  19.6213  1.70475855 46827
GSAT0102 (GALILEO-FM2)  
1 37847U 11060B   19118.86901428 -.00000067  00000-0  00000+0 0  9998
2 37847  56.3466  52.7485 0006042 321.7070 218.0684  1.70475839 46816
LUCH 5A                 
1 37951U 11074B   19119.23924828 -.00000060  00000-0  00000+0 0  9993
2 37951   2.3879 130.6982 0004087 268.9086  69.2252  1.00271441 27053
METEOSAT-10 (MSG-3)     
1 38552U 12035B   19118.84745084  .00000052  00000-0  00000-0 0  9991
2 38552   1.0066  17.5349 0000576  74.0609  79.1822  1.00271136 24759
SARSAT 13 (METOP-B)     
1 38771U 12049A   19119.20237385 -.00000006  00000-0  17416-4 0  9993
2 38771  98.7080 179.2233 0002223 101.6208 349.3024 14.21486288343025
GPS BIIF-3              
1 38833U 12053A   19118.75126497 -.00000039  00000-0  00000-0 0  9990
2 38833  53.7951 250.4712 0081571  33.4730 327.0156  2.00557914 47277
GSAT0103 (GALILEO-FM3)  
1 38857U 12055A   19118.10656981  .00000022  00000-0  00000+0 0  9993
2 38857  54.9254 173.2498 0004720 260.9662  99.0548  1.70473912 40711
GSAT0104 (GALILEO-FM4)  
1 38858U 12055B   19113.93475135  .00000008  00000-0  00000+0 0  9994
2 38858  54.9256 173.3641 0003490 265.4604  94.5769  1.70473790 40599
GPS BIIF-4              
1 39166U 13023A   19118.11312585 -.00000102  00000-0  00000-0 0  9994
2 39166  56.0684  13.2461 0069376  25.4220 334.9478  2.00568075 43591
INSAT-3D                
1 39216U 13038B   19118.92125369 -.00000164  00000-0  00000-0 0  9995
2 39216   0.0693 104.9562 0001678 318.7983 206.5514  1.00271029 20972
GPS BIIF-5              
1 39533U 14008A   19118.60617171 -.00000036  00000-0  00000-0 0  9995
2 39533  53.9280 255.8664 0039762 191.9112 167.9699  2.00572135 37427
LUCH 5V                 
1 39727U 14023A   19119.24420190 -.00000277  00000-0  00000+0 0  9997
2 39727   1.3194 302.9925 0004350 118.4086 338.1280  1.00269340536394
GPS BIIF-6              
1 39741U 14026A   19118.89235416 -.00000027  00000-0  00000-0 0  9995
2 39741  55.8635  73.2166 0018061 293.5038  66.2858  2.00575893 36260
GPS BIIF-7              
1 40105U 14045A   19118.48404556 -.00000016  00000-0  00000-0 0  9998
2 40105  54.5742 192.5754 0010518 103.0727 257.0994  2.00561516 33825
GSAT0201 (GALILEO 5)    
1 40128U 14050A   19118.28818318 -.00000115  00000-0  00000+0 0  9991
2 40128  50.5604  17.9885 1664236  85.8867 292.8633  1.85518777 31898
GSAT0202 (GALILEO 6)    
1 40129U 14050B   19118.55347270 -.00000114  00000-0  00000-0 0  9996
2 40129  50.6047  16.9994 1663645  86.7627 292.0357  1.85519394 32126
GPS BIIF-8              
1 40294U 14068A   19117.84938501  .00000052  00000-0  00000+0 0  9991
2 40294  55.1644 133.4538 0019864  27.6969 332.4530  2.00548675 32899
GLONASS-K 2             
1 40315U 14075A   19119.21379916  .00000002  00000-0  00000+0 0  9990
2 40315  64.0658 281.4140 0014952 203.0882 289.4453  2.13098588 34329
GPS BIIF-9              
1 40534U 15013A   19117.99486831 -.00000034  00000-0  00000+0 0  9990
2 40534  54.5427 311.9766 0037066   6.0282 354.0311  2.00572942 29962
GSAT0203 (GALILEO 7)    
1 40544U 15017A   19118.43045705 -.00000067  00000-0  00000+0 0  9992
2 40544  56.1363  52.9537 0003878 281.6472  78.2876  1.70474889 25429
GSAT0204 (GALILEO 8)    
1 40545U 15017B   19118.21252328 -.00000068  00000-0  00000-0 0  9992
2 40545  56.1431  52.9738 0001386 284.9878  74.9752  1.70475245 25420
GPS BIIF-10             
1 40730U 15033A   19117.65365991 -.00000104  00000-0  00000+0 0  9994
2 40730  55.5938  12.6271 0044720 342.5411  17.3360  2.00557505 27713
METEOSAT-11 (MSG-4)     
1 40732U 15034A   19118.82402035 -.00000010  00000-0  00000-0 0  9995
2 40732   0.8665 217.4761 0000747 161.4644 134.0433  1.00276574 13908
GSAT0205 (GALILEO 9)    
1 40889U 15045A   19117.86960449 -.00000019  00000-0  00000+0 0  9999
2 40889  56.4875 293.5473 0004008  37.7982 322.2148  1.70475215 22566
GSAT0206 (GALILEO 10)   
1 40890U 15045B   19118.67588008 -.00000018  00000-0  00000+0 0  9997
2 40890  56.4860 293.5218 0002395  49.4980 310.5081  1.70475305 22605
GPS BIIF-11             
1 41019U 15062A   19118.20173215  .00000056  00000-0  00000+0 0  9990
2 41019  55.1662 133.2541 0046165 208.0193 151.7760  2.00564812 25547
ELEKTRO-L 2             
1 41105U 15074A   19119.14797852 -.00000104  00000-0  00000+0 0  9997
2 41105   0.2389 113.8736 0002760 305.7494 286.4494  1.00273061 12382
GSAT0209 (GALILEO 12)   
1 41174U 15079A   19118.84709967  .00000029  00000-0  00000+0 0  9999
2 41174  54.9398 172.9235 0005869 296.6965  63.3208  1.70474029 20926
GSAT0208 (GALILEO 11)   
1 41175U 15079B   19117.89375448  .00000021  00000-0  00000+0 0  9999
2 41175  54.9372 172.9500 0004984 295.7374  64.2851  1.70474118 20917
GPS BIIF-12             
1 41328U 16007A   19116.80264738 -.00000026  00000-0  00000-0 0  9997
2 41328  54.8188 193.0183 0030973 218.8596 140.9705  2.00574153 23570
GSAT0211 (GALILEO 14)   
1 41549U 16030A   19118.60268751 -.00000018  00000-0  00000+0 0  9997
2 41549  56.6272 293.3376 0001611 348.9202  11.0612  1.70474983 18219
GSAT0210 (GALILEO 13)   
1 41550U 16030B   19117.13603566 -.00000019  00000-0  00000+0 0  9994
2 41550  56.6276 293.3794 0000547 245.6602 114.3177  1.70475120 18186
INSAT-3DR               
1 41752U 16054A   19118.86036177 -.00000085  00000-0  00000-0 0  9997
2 41752   0.1670  95.5988 0010774 185.6232 319.0230  1.00271476  9673
GSAT0207 (GALILEO 15)   
1 41859U 16069A   19117.96713482  .00000021  00000-0  00000-0 0  9991
2 41859  54.5974 173.4149 0005721 286.0814  73.9295  1.70473895 15113
GSAT0212 (GALILEO 16)   
1 41860U 16069B   19117.23398446  .00000015  00000-0  00000+0 0  9994
2 41860  54.5951 173.4348 0004522 301.0416  58.9864  1.70473903 15198
GSAT0213 (GALILEO 17)   
1 41861U 16069C   19114.66720139  .00000007  00000-0  00000+0 0  9998
2 41861  54.5972 173.5095 0004798 267.9437  92.0760  1.70473967 15150
GSAT0214 (GALILEO 18)   
1 41862U 16069D   19118.33357226  .00000023  00000-0  00000+0 0  9998
2 41862  54.5958 173.4035 0004148 272.4514  87.5761  1.70474027 15208
GOES 16                 
1 41866U 16071A   19118.79980257 -.00000257  00000-0  00000-0 0  9992
2 41866   0.0015 117.2922 0001031 333.3121 338.6014  1.00272191  8970
GSAT-17                 
1 42815U 17040B   19119.51035233 -.00000265  00000-0  00000+0 0  9998
2 42815   0.1008 100.2825 0003198 211.1722 182.9751  1.00273144  6748
GSAT0215 (GALILEO 19)   
1 43055U 17079A   19117.06174097 -.00000020  00000-0  00000-0 0  9997
2 43055  56.6028 293.2301 0000542 164.6653 195.3196  1.70474218  8521
GSAT0216 (GALILEO 20)   
1 43056U 17079B   19117.94137744 -.00000018  00000-0  00000+0 0  9999
2 43056  56.6023 293.2055 0001912 253.4717 106.4918  1.70474324  8526
GSAT0217 (GALILEO 21)   
1 43057U 17079C   19118.16137215 -.00000018  00000-0  00000+0 0  9998
2 43057  56.6005 293.2009 0001357 281.2394  78.7300  1.70474269  8545
GSAT0218 (GALILEO 22)   
1 43058U 17079D   19117.79473104 -.00000019  00000-0  00000+0 0  9998
2 43058  56.6007 293.2082 0002414 249.1670 110.7915  1.70474305  8533
GOES 17                 
1 43226U 18022A   19119.17720253  .00000090  00000-0  00000+0 0  9996
2 43226   0.0276  86.0068 0002744 321.4637  95.9658  1.00272951  4301
GSAT0221 (GALILEO 25)   
1 43564U 18060A   19117.69734791 -.00000069  00000-0  00000+0 0  9997
2 43564  56.5277  52.4914 0005179 292.0703  67.8538  1.70475819  4728
GSAT0222 (GALILEO 26)   
1 43565U 18060B   19118.50384344 -.00000068  00000-0  00000+0 0  9993
2 43565  56.5306  52.4680 0005191 299.8363  60.0908  1.70475840  4778
GSAT0219 (GALILEO 23)   
1 43566U 18060C   19118.13718194 -.00000068  00000-0  00000-0 0  9998
2 43566  56.5308  52.4796 0004735 297.2595  62.6712  1.70475683  4744
GSAT0220 (GALILEO 24)   
1 43567U 18060D   19115.42413107 -.00000071  00000-0  00000-0 0  9998
2 43567  56.5291  52.5542 0004922 296.7175  63.2104  1.70475839  4680
